IRIDIUM 144             
1 43249U 18030A   24133.38156068  .00000216  00000+0  70091-4 0  9993
2 43249  86.3973 250.4183 0002037  98.2745 261.8682 14.34224992320390
IRIDIUM 149             
1 43250U 18030B   24133.38790085  .00001180  00000+0  41412-3 0  9993
2 43250  86.3970 250.3909 0002135  98.2731 261.8707 14.34225866320397
IRIDIUM 157             
1 43251U 18030C   24133.40693158  .00000322  00000+0  10803-3 0  9997
2 43251  86.3975 250.4190 0002566  97.0053 263.1434 14.34225676320377
IRIDIUM 140             
1 43252U 18030D   24133.35619936  .00001112  00000+0  39027-3 0  9991
2 43252  86.3990 250.4566 0001792  81.1217 279.0182 14.34191732320425
IRIDIUM 145             
1 43253U 18030E   24133.06443052  .00001271  00000+0  44659-3 0  9997
2 43253  86.3973 250.5505 0001936 104.1456 255.9955 14.34225142320314
IRIDIUM 146             
1 43254U 18030F   24133.04539231  .00001293  00000+0  45432-3 0  9995
2 43254  86.3971 250.5734 0001982  99.0992 261.0428 14.34229393320321
IRIDIUM 148             
1 43255U 18030G   24133.08346038  .00000803  00000+0  27962-3 0  9995
2 43255  86.3973 250.5889 0002305 101.5764 258.5690 14.34223058320370
IRIDIUM 142             
1 43256U 18030H   24132.84244110  .00001114  00000+0  39066-3 0  9991
2 43256  86.3968 250.6064 0002104 102.8828 257.2603 14.34224091320292
